start=new Date('2022-04-18T00:00:00.000Z').valueOf();
sats=[{"MEAN_MOTION_DOT":"0.00002325","REF_FRAME":"TEME","PERIOD":"95.592","COUNTRY_CODE":"US","CENTER_NAME":"EARTH","TLE_LINE2":"2 48462  53.0536  94.3705 0001850  51.3474 308.7680 15.06406677 52195","BSTAR":"0.00017488000000","MEAN_MOTION":"15.06406677","REV_AT_EPOCH":"5219","SEMIMAJOR_AXIS":"6925.328","TIME_SYSTEM":"UTC","LAUNCH_DATE":"2021-05-09","APOAPSIS":"548.474","NORAD_CAT_ID":"48462","EPOCH":"2022-04-17T21:02:02.425344","TLE_LINE1":"1 48462U 21040AL  22107.87641696  .00002325  00000-0  17488-3 0  9993","ARG_OF_PERICENTER":"51.3474","RA_OF_ASC_NODE":"94.3705","OBJECT_TYPE":"PAYLOAD","EPHEMERIS_TYPE":"0","RCS_SIZE":"LARGE","OBJECT_NAME":"STARLINK-2683","CLASSIFICATION_TYPE":"U","SITE":"AFETR","INCLINATION":"53.0536","MEAN_ELEMENT_THEORY":"SGP4","DECAY_DATE":null,"FILE":"3405839","GP_ID":"201495225","ELEMENT_SET_NO":"999","ECCENTRICITY":"0.00018500","MEAN_MOTION_DDOT":"0.0000000000000","OBJECT_ID":"2021-040AL","PERIAPSIS":"545.912","MEAN_ANOMALY":"308.7680"},{"OBJECT_TYPE":"PAYLOAD","ARG_OF_PERICENTER":"55.8629","RA_OF_ASC_NODE":"97.2217","EPHEMERIS_TYPE":"0","TLE_LINE1":"1 48463U 21040AM  22107.24611824 -.00001310  00000-0 -69066-4 0  9990","EPOCH":"2022-04-17T05:54:24.615936","CLASSIFICATION_TYPE":"U","SITE":"AFETR","RCS_SIZE":"LARGE","OBJECT_NAME":"STARLINK-2689","ELEMENT_SET_NO":"999","MEAN_ELEMENT_THEORY":"SGP4","INCLINATION":"53.0536","GP_ID":"201469108","DECAY_DATE":null,"FILE":"3405611","PERIAPSIS":"545.999","MEAN_ANOMALY":"304.2529","MEAN_MOTION_DDOT":"0.0000000000000","ECCENTRICITY":"0.00017860","OBJECT_ID":"2021-040AM","PERIOD":"95.593","COUNTRY_CODE":"US","MEAN_MOTION_DOT":"-0.00001310","REF_FRAME":"TEME","TLE_LINE2":"2 48463  53.0536  97.2217 0001786  55.8629 304.2529 15.06392693 53371","CENTER_NAME":"EARTH","MEAN_MOTION":"15.06392693","BSTAR":"-0.00006906600000","TIME_SYSTEM":"UTC","LAUNCH_DATE":"2021-05-09","APOAPSIS":"548.473","NORAD_CAT_ID":"48463","REV_AT_EPOCH":"5337","SEMIMAJOR_AXIS":"6925.371"},{"CLASSIFICATION_TYPE":"U","SITE":"AFETR","RCS_SIZE":"MEDIUM","OBJECT_NAME":"STARLINK-2686","OBJECT_TYPE":"PAYLOAD","RA_OF_ASC_NODE":"95.2317","ARG_OF_PERICENTER":"54.9423","EPHEMERIS_TYPE":"0","TLE_LINE1":"1 48464U 21040AN  22107.68939808 -.00001157  00000-0 -58820-4 0  9999","EPOCH":"2022-04-17T16:32:43.994112","PERIAPSIS":"546.038","MEAN_ANOMALY":"305.1732","MEAN_MOTION_DDOT":"0.0000000000000","ECCENTRICITY":"0.00017700","OBJECT_ID":"2021-040AN","ELEMENT_SET_NO":"999","MEAN_ELEMENT_THEORY":"SGP4","INCLINATION":"53.0545","GP_ID":"201496225","FILE":"3405839","DECAY_DATE":null,"TLE_LINE2":"2 48464  53.0545  95.2317 0001770  54.9423 305.1732 15.06383505 52160","CENTER_NAME":"EARTH","PERIOD":"95.593","COUNTRY_CODE":"US","MEAN_MOTION_DOT":"-0.00001157","REF_FRAME":"TEME","TIME_SYSTEM":"UTC","LAUNCH_DATE":"2021-05-09","NORAD_CAT_ID":"48464","APOAPSIS":"548.490","REV_AT_EPOCH":"5216","SEMIMAJOR_AXIS":"6925.399","MEAN_MOTION":"15.06383505","BSTAR":"-0.00005882000000"},{"MEAN_MOTION":"15.06403709","BSTAR":"0.00003695000000","APOAPSIS":"548.376","NORAD_CAT_ID":"48465","LAUNCH_DATE":"2021-05-09","TIME_SYSTEM":"UTC","REV_AT_EPOCH":"5217","SEMIMAJOR_AXIS":"6925.337","COUNTRY_CODE":"US","PERIOD":"95.592","REF_FRAME":"TEME","MEAN_MOTION_DOT":"0.00000269","TLE_LINE2":"2 48465  53.0551  95.1846 0001695  58.5982 301.5172 15.06403709 52178","CENTER_NAME":"EARTH","ELEMENT_SET_NO":"999","GP_ID":"201494484","DECAY_DATE":null,"FILE":"3405839","MEAN_ELEMENT_THEORY":"SGP4","INCLINATION":"53.0551","MEAN_ANOMALY":"301.5172","PERIAPSIS":"546.028","OBJECT_ID":"2021-040AP","MEAN_MOTION_DDOT":"0.0000000000000","ECCENTRICITY":"0.00016950","EPHEMERIS_TYPE":"0","OBJECT_TYPE":"PAYLOAD","ARG_OF_PERICENTER":"58.5982","RA_OF_ASC_NODE":"95.1846","EPOCH":"2022-04-17T16:48:37.357632","TLE_LINE1":"1 48465U 21040AP  22107.70043238  .00000269  00000-0  36950-4 0  9997","SITE":"AFETR","CLASSIFICATION_TYPE":"U","OBJECT_NAME":"STARLINK-2681","RCS_SIZE":"LARGE"},{"REV_AT_EPOCH":"5217","SEMIMAJOR_AXIS":"6925.354","NORAD_CAT_ID":"48466","APOAPSIS":"548.642","LAUNCH_DATE":"2021-05-09","TIME_SYSTEM":"UTC","BSTAR":"0.00008543100000","MEAN_MOTION":"15.06398133","CENTER_NAME":"EARTH","TLE_LINE2":"2 48466  53.0557  95.2513 0002055  54.1394 305.9786 15.06398133 52170","REF_FRAME":"TEME","MEAN_MOTION_DOT":"0.00000991","COUNTRY_CODE":"US","PERIOD":"95.592","OBJECT_ID":"2021-040AQ","MEAN_MOTION_DDOT":"0.0000000000000","ECCENTRICITY":"0.00020550","MEAN_ANOMALY":"305.9786","PERIAPSIS":"545.796","GP_ID":"201494734","FILE":"3405839","DECAY_DATE":null,"MEAN_ELEMENT_THEORY":"SGP4","INCLINATION":"53.0557","ELEMENT_SET_NO":"999","OBJECT_NAME":"STARLINK-2687","RCS_SIZE":"LARGE","SITE":"AFETR","CLASSIFICATION_TYPE":"U","EPOCH":"2022-04-17T16:27:24.082560","TLE_LINE1":"1 48466U 21040AQ  22107.68569540  .00000991  00000-0  85431-4 0  9994","EPHEMERIS_TYPE":"0","OBJECT_TYPE":"PAYLOAD","RA_OF_ASC_NODE":"95.2513","ARG_OF_PERICENTER":"54.1394"},{"MEAN_MOTION_DOT":"-0.00001051","REF_FRAME":"TEME","PERIOD":"95.592","COUNTRY_CODE":"US","CENTER_NAME":"EARTH","TLE_LINE2":"2 48467  53.0543  96.6202 0001884  54.2868 305.8296 15.06405377 52121","BSTAR":"-0.00005168000000","MEAN_MOTION":"15.06405377","REV_AT_EPOCH":"5212","SEMIMAJOR_AXIS":"6925.332","LAUNCH_DATE":"2021-05-09","TIME_SYSTEM":"UTC","NORAD_CAT_ID":"48467","APOAPSIS":"548.502","EPOCH":"2022-04-17T09:06:51.208704","TLE_LINE1":"1 48467U 21040AR  22107.37975936 -.00001051  00000-0 -51680-4 0  9990","ARG_OF_PERICENTER":"54.2868","RA_OF_ASC_NODE":"96.6202","OBJECT_TYPE":"PAYLOAD","EPHEMERIS_TYPE":"0","RCS_SIZE":"LARGE","OBJECT_NAME":"STARLINK-2659","CLASSIFICATION_TYPE":"U","SITE":"AFETR","INCLINATION":"53.0543","MEAN_ELEMENT_THEORY":"SGP4","DECAY_DATE":null,"FILE":"3405596","GP_ID":"201465247","ELEMENT_SET_NO":"999","ECCENTRICITY":"0.00018840","MEAN_MOTION_DDOT":"0.0000000000000","OBJECT_ID":"2021-040AR","PERIAPSIS":"545.892","MEAN_ANOMALY":"305.8296"},{"MEAN_MOTION_DOT":"-0.00000430","REF_FRAME":"TEME","PERIOD":"95.592","COUNTRY_CODE":"US","CENTER_NAME":"EARTH","TLE_LINE2":"2 48468  53.0556  95.2075 0001746  54.7500 305.3652 15.06405194 52177","BSTAR":"-0.00000996820000","MEAN_MOTION":"15.06405194","REV_AT_EPOCH":"5217","SEMIMAJOR_AXIS":"6925.333","TIME_SYSTEM":"UTC","LAUNCH_DATE":"2021-05-09","APOAPSIS":"548.407","NORAD_CAT_ID":"48468","EPOCH":"2022-04-17T16:38:00.927456","TLE_LINE1":"1 48468U 21040AS  22107.69306629 -.00000430  00000-0 -99682-5 0  9998","RA_OF_ASC_NODE":"95.2075","ARG_OF_PERICENTER":"54.7500","OBJECT_TYPE":"PAYLOAD","EPHEMERIS_TYPE":"0","RCS_SIZE":"LARGE","OBJECT_NAME":"STARLINK-2685","CLASSIFICATION_TYPE":"U","SITE":"AFETR","INCLINATION":"53.0556","MEAN_ELEMENT_THEORY":"SGP4","DECAY_DATE":null,"FILE":"3405839","GP_ID":"201495734","ELEMENT_SET_NO":"999","ECCENTRICITY":"0.00017460","MEAN_MOTION_DDOT":"0.0000000000000","OBJECT_ID":"2021-040AS","PERIAPSIS":"545.988","MEAN_ANOMALY":"305.3652"},{"REF_FRAME":"TEME","MEAN_MOTION_DOT":"-0.00000600","COUNTRY_CODE":"US","PERIOD":"95.592","CENTER_NAME":"EARTH","TLE_LINE2":"2 48469  53.0554  96.6402 0001550  81.2764 278.8400 15.06402370 52128","BSTAR":"-0.00002139700000","MEAN_MOTION":"15.06402370","SEMIMAJOR_AXIS":"6925.341","REV_AT_EPOCH":"5212","APOAPSIS":"548.280","NORAD_CAT_ID":"48469","LAUNCH_DATE":"2021-05-09","TIME_SYSTEM":"UTC","EPOCH":"2022-04-17T09:01:33.732768","TLE_LINE1":"1 48469U 21040AT  22107.37608487 -.00000600  00000-0 -21397-4 0  9997","EPHEMERIS_TYPE":"0","ARG_OF_PERICENTER":"81.2764","RA_OF_ASC_NODE":"96.6402","OBJECT_TYPE":"PAYLOAD","OBJECT_NAME":"STARLINK-2661","RCS_SIZE":"LARGE","SITE":"AFETR","CLASSIFICATION_TYPE":"U","FILE":"3405596","DECAY_DATE":null,"GP_ID":"201466247","INCLINATION":"53.0554","MEAN_ELEMENT_THEORY":"SGP4","ELEMENT_SET_NO":"999","OBJECT_ID":"2021-040AT","ECCENTRICITY":"0.00015500","MEAN_MOTION_DDOT":"0.0000000000000","MEAN_ANOMALY":"278.8400","PERIAPSIS":"546.133"},{"BSTAR":"0.00008973000000","MEAN_MOTION":"15.06397685","REV_AT_EPOCH":"5211","SEMIMAJOR_AXIS":"6925.356","NORAD_CAT_ID":"48470","APOAPSIS":"548.641","LAUNCH_DATE":"2021-05-09","TIME_SYSTEM":"UTC","REF_FRAME":"TEME","MEAN_MOTION_DOT":"0.00001055","COUNTRY_CODE":"US","PERIOD":"95.592","CENTER_NAME":"EARTH","TLE_LINE2":"2 48470  53.0554  96.6559 0002051  48.1171 311.9992 15.06397685 52110","GP_ID":"201464514","DECAY_DATE":null,"FILE":"3405596","MEAN_ELEMENT_THEORY":"SGP4","INCLINATION":"53.0554","ELEMENT_SET_NO":"999","OBJECT_ID":"2021-040AU","MEAN_MOTION_DDOT":"0.0000000000000","ECCENTRICITY":"0.00020510","MEAN_ANOMALY":"311.9992","PERIAPSIS":"545.800","EPOCH":"2022-04-17T08:56:14.349984","TLE_LINE1":"1 48470U 21040AU  22107.37238831  .00001055  00000-0  89730-4 0  9999","EPHEMERIS_TYPE":"0","OBJECT_TYPE":"PAYLOAD","ARG_OF_PERICENTER":"48.1171","RA_OF_ASC_NODE":"96.6559","OBJECT_NAME":"STARLINK-2675","RCS_SIZE":"LARGE","SITE":"AFETR","CLASSIFICATION_TYPE":"U"},{"TLE_LINE2":"2 48471  53.0535  95.1946 0002031  51.5706 308.5465 15.06398365 52162","CENTER_NAME":"EARTH","COUNTRY_CODE":"US","PERIOD":"95.592","REF_FRAME":"TEME","MEAN_MOTION_DOT":"0.00000293","APOAPSIS":"548.625","NORAD_CAT_ID":"48471","TIME_SYSTEM":"UTC","LAUNCH_DATE":"2021-05-09","SEMIMAJOR_AXIS":"6925.354","REV_AT_EPOCH":"5216","MEAN_MOTION":"15.06398365","BSTAR":"0.00003858000000","SITE":"AFETR","CLASSIFICATION_TYPE":"U","OBJECT_NAME":"STARLINK-2684","RCS_SIZE":"LARGE","EPHEMERIS_TYPE":"0","RA_OF_ASC_NODE":"95.1946","ARG_OF_PERICENTER":"51.5706","OBJECT_TYPE":"PAYLOAD","TLE_LINE1":"1 48471U 21040AV  22107.69675520  .00000293  00000-0  38580-4 0  9995","EPOCH":"2022-04-17T16:43:19.649280","MEAN_ANOMALY":"308.5465","PERIAPSIS":"545.812","OBJECT_ID":"2021-040AV","ECCENTRICITY":"0.00020310","MEAN_MOTION_DDOT":"0.0000000000000","ELEMENT_SET_NO":"999","FILE":"3405839","DECAY_DATE":null,"GP_ID":"201495486","INCLINATION":"53.0535","MEAN_ELEMENT_THEORY":"SGP4"}];
